ADRAS-J                 
1 58992U 24034A   24100.91380575  .00005407  00000+0  50611-3 0  9992
2 58992  98.2071  70.8969 0042742 273.4892  86.1438 14.93848357  7677
